YAOGAN-36 04C           
1 54750U 22171E   26068.78871400  .00016196  00000+0  54592-3 0  9991
2 54750  34.9797  96.6578 0006685 275.3761  84.6192 15.29852307180246
STARLINK-30829          
1 58158U 23166J   26068.67644554  .00007154  00000+0  25314-3 0  9992
2 58158  53.1604 219.9289 0001359 111.1626 248.9520 15.30237339133175
